SL-3 R/B                
1 13154U 82039B   25307.92396479  .00002758  00000+0  16994-3 0  9995
2 13154  81.1828   0.7223 0032692  18.4565 341.7837 15.09208834362665
SL-3 R/B                
1 13403U 82079B   25307.92472973  .00006001  00000+0  25218-3 0  9994
2 13403  81.1477 341.3997 0024739 228.7110 131.1993 15.22981141358549
SL-14 R/B               
1 13553U 82092B   25307.38908437  .00000745  00000+0  81197-4 0  9992
2 13553  82.5667 259.5114 0020584   5.0852 158.8075 14.86484477310167
SL-3 R/B                
1 13819U 83010B   25307.85599519  .00014287  00000+0  33176-3 0  9996
2 13819  81.1034 156.0307 0018296 122.4499 237.8516 15.42053695338523
SL-3 R/B                
1 14208U 83075B   25307.94947763  .00012482  00000+0  36717-3 0  9997
2 14208  97.6096 303.1643 0022053 323.4460  36.5276 15.34992447310841
COSMOS 1536             
1 14699U 84013A   25307.95602857  .00008752  00000+0  38290-3 0  9990
2 14699  82.5470 232.6010 0015870  12.9939 347.1703 15.21802530253489
SL-14 R/B               
1 14820U 84027B   25307.90041216  .00000575  00000+0  63149-4 0  9999
2 14820  82.5438   2.9776 0018832  34.4368 325.8064 14.85814223228950
SL-8 R/B                
1 15483U 85006B   25307.94398049  .00000311  00000+0  11187-3 0  9998
2 15483  74.0429 132.5106 0017468  77.7373  87.7691 14.37685257135956
SL-12 R/B(2)            
1 15772U 85042D   25307.86552868  .00000103  00000+0  68062-4 0  9995
2 15772  71.1094 353.5479 0036862 318.6171 214.5167 14.21933052 96500
SL-14 R/B               
1 15945U 85069B   25307.78852533  .00000575  00000+0  62541-4 0  9998
2 15945  82.5251 143.3234 0017389 247.9878 111.9491 14.86254858154133
SL-16 R/B               
1 16182U 85097B   25307.57913700 -.00000074  00000+0 -13025-4 0  9993
2 16182  71.0045  46.0447 0005118  87.0589 284.1881 14.16576795 69372
SL-14 R/B               
1 16496U 86006B   25307.93060896  .00000743  00000+0  76859-4 0  9996
2 16496  82.5297  18.0623 0076024 330.6017  29.0932 14.86590640130529
