CCSDS_OMM_VERS = 2.0
CREATION_DATE  = 
ORIGINATOR     = 

OBJECT_NAME    = SL-3 R/B
OBJECT_ID      = 1982-039B
CENTER_NAME    = EARTH
REF_FRAME      = TEME
TIME_SYSTEM    = UTC
MEAN_ELEMENT_THEORY = SGP/SGP4

EPOCH          = 2025-11-03T22:10:30.557856
MEAN_MOTION    = 15.09208834
ECCENTRICITY   = .00326926
INCLINATION    = 81.1828
RA_OF_ASC_NODE = 0.7223
ARG_OF_PERICENTER = 18.4565
MEAN_ANOMALY   = 341.7837

EPHEMERIS_TYPE = 0
CLASSIFICATION_TYPE = U
NORAD_CAT_ID   = 13154
ELEMENT_SET_NO = 999
REV_AT_EPOCH   = 36266
BSTAR          = .16993767E-3
MEAN_MOTION_DOT = .2758E-4
MEAN_MOTION_DDOT = 0

CCSDS_OMM_VERS = 2.0
CREATION_DATE  = 
ORIGINATOR     = 

OBJECT_NAME    = SL-3 R/B
OBJECT_ID      = 1982-079B
CENTER_NAME    = EARTH
REF_FRAME      = TEME
TIME_SYSTEM    = UTC
MEAN_ELEMENT_THEORY = SGP/SGP4

EPOCH          = 2025-11-03T22:11:36.648672
MEAN_MOTION    = 15.22981141
ECCENTRICITY   = .0024739
INCLINATION    = 81.1477
RA_OF_ASC_NODE = 341.3997
ARG_OF_PERICENTER = 228.7110
MEAN_ANOMALY   = 131.1993

EPHEMERIS_TYPE = 0
CLASSIFICATION_TYPE = U
NORAD_CAT_ID   = 13403
ELEMENT_SET_NO = 999
REV_AT_EPOCH   = 35854
BSTAR          = .25217757E-3
MEAN_MOTION_DOT = .6001E-4
MEAN_MOTION_DDOT = 0

CCSDS_OMM_VERS = 2.0
CREATION_DATE  = 
ORIGINATOR     = 

OBJECT_NAME    = SL-14 R/B
OBJECT_ID      = 1982-092B
CENTER_NAME    = EARTH
REF_FRAME      = TEME
TIME_SYSTEM    = UTC
MEAN_ELEMENT_THEORY = SGP/SGP4

EPOCH          = 2025-11-03T09:20:16.889568
MEAN_MOTION    = 14.86484477
ECCENTRICITY   = .00205843
INCLINATION    = 82.5667
RA_OF_ASC_NODE = 259.5114
ARG_OF_PERICENTER = 5.0852
MEAN_ANOMALY   = 158.8075

EPHEMERIS_TYPE = 0
CLASSIFICATION_TYPE = U
NORAD_CAT_ID   = 13553
ELEMENT_SET_NO = 999
REV_AT_EPOCH   = 31016
BSTAR          = .81197057E-4
MEAN_MOTION_DOT = .745E-5
MEAN_MOTION_DDOT = 0

CCSDS_OMM_VERS = 2.0
CREATION_DATE  = 
ORIGINATOR     = 

OBJECT_NAME    = SL-3 R/B
OBJECT_ID      = 1983-010B
CENTER_NAME    = EARTH
REF_FRAME      = TEME
TIME_SYSTEM    = UTC
MEAN_ELEMENT_THEORY = SGP/SGP4

EPOCH          = 2025-11-03T20:32:37.984416
MEAN_MOTION    = 15.42053695
ECCENTRICITY   = .00182968
INCLINATION    = 81.1034
RA_OF_ASC_NODE = 156.0307
ARG_OF_PERICENTER = 122.4499
MEAN_ANOMALY   = 237.8516

EPHEMERIS_TYPE = 0
CLASSIFICATION_TYPE = U
NORAD_CAT_ID   = 13819
ELEMENT_SET_NO = 999
REV_AT_EPOCH   = 33852
BSTAR          = .33176108E-3
MEAN_MOTION_DOT = .14287E-3
MEAN_MOTION_DDOT = 0

CCSDS_OMM_VERS = 2.0
CREATION_DATE  = 
ORIGINATOR     = 

OBJECT_NAME    = SL-3 R/B
OBJECT_ID      = 1983-075B
CENTER_NAME    = EARTH
REF_FRAME      = TEME
TIME_SYSTEM    = UTC
MEAN_ELEMENT_THEORY = SGP/SGP4

EPOCH          = 2025-11-03T22:47:14.867232
MEAN_MOTION    = 15.34992447
ECCENTRICITY   = .00220536
INCLINATION    = 97.6096
RA_OF_ASC_NODE = 303.1643
ARG_OF_PERICENTER = 323.4460
MEAN_ANOMALY   = 36.5276

EPHEMERIS_TYPE = 0
CLASSIFICATION_TYPE = U
NORAD_CAT_ID   = 14208
ELEMENT_SET_NO = 999
REV_AT_EPOCH   = 31084
BSTAR          = .36716857E-3
MEAN_MOTION_DOT = .12482E-3
MEAN_MOTION_DDOT = 0

CCSDS_OMM_VERS = 2.0
CREATION_DATE  = 
ORIGINATOR     = 

OBJECT_NAME    = COSMOS 1536
OBJECT_ID      = 1984-013A
CENTER_NAME    = EARTH
REF_FRAME      = TEME
TIME_SYSTEM    = UTC
MEAN_ELEMENT_THEORY = SGP/SGP4

EPOCH          = 2025-11-03T22:56:40.868448
MEAN_MOTION    = 15.21802530
ECCENTRICITY   = .001587
INCLINATION    = 82.5470
RA_OF_ASC_NODE = 232.6010
ARG_OF_PERICENTER = 12.9939
MEAN_ANOMALY   = 347.1703

EPHEMERIS_TYPE = 0
CLASSIFICATION_TYPE = U
NORAD_CAT_ID   = 14699
ELEMENT_SET_NO = 999
REV_AT_EPOCH   = 25348
BSTAR          = .38289935E-3
MEAN_MOTION_DOT = .8752E-4
MEAN_MOTION_DDOT = 0

CCSDS_OMM_VERS = 2.0
CREATION_DATE  = 
ORIGINATOR     = 

OBJECT_NAME    = SL-14 R/B
OBJECT_ID      = 1984-027B
CENTER_NAME    = EARTH
REF_FRAME      = TEME
TIME_SYSTEM    = UTC
MEAN_ELEMENT_THEORY = SGP/SGP4

EPOCH          = 2025-11-03T21:36:35.610624
MEAN_MOTION    = 14.85814223
ECCENTRICITY   = .00188327
INCLINATION    = 82.5438
RA_OF_ASC_NODE = 2.9776
ARG_OF_PERICENTER = 34.4368
MEAN_ANOMALY   = 325.8064

EPHEMERIS_TYPE = 0
CLASSIFICATION_TYPE = U
NORAD_CAT_ID   = 14820
ELEMENT_SET_NO = 999
REV_AT_EPOCH   = 22895
BSTAR          = .63148964E-4
MEAN_MOTION_DOT = .575E-5
MEAN_MOTION_DDOT = 0

CCSDS_OMM_VERS = 2.0
CREATION_DATE  = 
ORIGINATOR     = 

OBJECT_NAME    = SL-8 R/B
OBJECT_ID      = 1985-006B
CENTER_NAME    = EARTH
REF_FRAME      = TEME
TIME_SYSTEM    = UTC
MEAN_ELEMENT_THEORY = SGP/SGP4

EPOCH          = 2025-11-03T22:39:19.914336
MEAN_MOTION    = 14.37685257
ECCENTRICITY   = .00174688
INCLINATION    = 74.0429
RA_OF_ASC_NODE = 132.5106
ARG_OF_PERICENTER = 77.7373
MEAN_ANOMALY   = 87.7691

EPHEMERIS_TYPE = 0
CLASSIFICATION_TYPE = U
NORAD_CAT_ID   = 15483
ELEMENT_SET_NO = 999
REV_AT_EPOCH   = 13595
BSTAR          = .11186639E-3
MEAN_MOTION_DOT = .311E-5
MEAN_MOTION_DDOT = 0

CCSDS_OMM_VERS = 2.0
CREATION_DATE  = 
ORIGINATOR     = 

OBJECT_NAME    = SL-12 R/B(2)
OBJECT_ID      = 1985-042D
CENTER_NAME    = EARTH
REF_FRAME      = TEME
TIME_SYSTEM    = UTC
MEAN_ELEMENT_THEORY = SGP/SGP4

EPOCH          = 2025-11-03T20:46:21.677952
MEAN_MOTION    = 14.21933052
ECCENTRICITY   = .00368626
INCLINATION    = 71.1094
RA_OF_ASC_NODE = 353.5479
ARG_OF_PERICENTER = 318.6171
MEAN_ANOMALY   = 214.5167

EPHEMERIS_TYPE = 0
CLASSIFICATION_TYPE = U
NORAD_CAT_ID   = 15772
ELEMENT_SET_NO = 999
REV_AT_EPOCH   = 9650
BSTAR          = .68061527E-4
MEAN_MOTION_DOT = .103E-5
MEAN_MOTION_DDOT = 0

CCSDS_OMM_VERS = 2.0
CREATION_DATE  = 
ORIGINATOR     = 

OBJECT_NAME    = SL-14 R/B
OBJECT_ID      = 1985-069B
CENTER_NAME    = EARTH
REF_FRAME      = TEME
TIME_SYSTEM    = UTC
MEAN_ELEMENT_THEORY = SGP/SGP4

EPOCH          = 2025-11-03T18:55:28.588512
MEAN_MOTION    = 14.86254858
ECCENTRICITY   = .00173893
INCLINATION    = 82.5251
RA_OF_ASC_NODE = 143.3234
ARG_OF_PERICENTER = 247.9878
MEAN_ANOMALY   = 111.9491

EPHEMERIS_TYPE = 0
CLASSIFICATION_TYPE = U
NORAD_CAT_ID   = 15945
ELEMENT_SET_NO = 999
REV_AT_EPOCH   = 15413
BSTAR          = .62540762E-4
MEAN_MOTION_DOT = .575E-5
MEAN_MOTION_DDOT = 0

CCSDS_OMM_VERS = 2.0
CREATION_DATE  = 
ORIGINATOR     = 

OBJECT_NAME    = SL-16 R/B
OBJECT_ID      = 1985-097B
CENTER_NAME    = EARTH
REF_FRAME      = TEME
TIME_SYSTEM    = UTC
MEAN_ELEMENT_THEORY = SGP/SGP4

EPOCH          = 2025-11-03T13:53:57.436800
MEAN_MOTION    = 14.16576795
ECCENTRICITY   = .00051184
INCLINATION    = 71.0045
RA_OF_ASC_NODE = 46.0447
ARG_OF_PERICENTER = 87.0589
MEAN_ANOMALY   = 284.1881

EPHEMERIS_TYPE = 0
CLASSIFICATION_TYPE = U
NORAD_CAT_ID   = 16182
ELEMENT_SET_NO = 999
REV_AT_EPOCH   = 6937
BSTAR          = -.13024791E-4
MEAN_MOTION_DOT = -.74E-6
MEAN_MOTION_DDOT = 0

CCSDS_OMM_VERS = 2.0
CREATION_DATE  = 
ORIGINATOR     = 

OBJECT_NAME    = SL-14 R/B
OBJECT_ID      = 1986-006B
CENTER_NAME    = EARTH
REF_FRAME      = TEME
TIME_SYSTEM    = UTC
MEAN_ELEMENT_THEORY = SGP/SGP4

EPOCH          = 2025-11-03T22:20:04.614144
MEAN_MOTION    = 14.86590640
ECCENTRICITY   = .00760242
INCLINATION    = 82.5297
RA_OF_ASC_NODE = 18.0623
ARG_OF_PERICENTER = 330.6017
MEAN_ANOMALY   = 29.0932

EPHEMERIS_TYPE = 0
CLASSIFICATION_TYPE = U
NORAD_CAT_ID   = 16496
ELEMENT_SET_NO = 999
REV_AT_EPOCH   = 13052
BSTAR          = .76858946E-4
MEAN_MOTION_DOT = .743E-5
MEAN_MOTION_DDOT = 0

